start=new Date('2023-03-23T00:00:00.000Z').valueOf();
sats=[{"OBJECT_TYPE":"PAYLOAD","BSTAR":"-0.00002104300000","COUNTRY_CODE":"US","EPHEMERIS_TYPE":"0","NORAD_CAT_ID":"54809","SITE":"AFETR","SEMIMAJOR_AXIS":"6917.855","OBJECT_NAME":"STARLINK-5414","LAUNCH_DATE":"2022-12-17","OBJECT_ID":"2022-175BD","TLE_LINE2":"2 54809  53.2185 210.6203 0001355 104.9183 255.1960 15.08848218 14475","EPOCH":"2023-03-22T15:35:50.623008","MEAN_MOTION_DDOT":"0.0000000000000","DECAY_DATE":null,"GP_ID":"228640393","TLE_LINE1":"1 54809U 22175BD  23081.64989147 -.00000623  00000-0 -21043-4 0  9992","RCS_SIZE":"LARGE","ARG_OF_PERICENTER":"104.9183","REV_AT_EPOCH":"1447","MEAN_ELEMENT_THEORY":"SGP4","PERIOD":"95.437","ECCENTRICITY":"0.00013550","CENTER_NAME":"EARTH","APOAPSIS":"540.658","MEAN_MOTION_DOT":"-0.00000623","INCLINATION":"53.2185","RA_OF_ASC_NODE":"210.6203","TIME_SYSTEM":"UTC","ELEMENT_SET_NO":"999","CLASSIFICATION_TYPE":"U","REF_FRAME":"TEME","MEAN_MOTION":"15.08848218","MEAN_ANOMALY":"255.1960","PERIAPSIS":"538.783","FILE":"3867748"},{"OBJECT_NAME":"STARLINK-5408","TLE_LINE2":"2 54810  53.2180 206.2486 0001320 108.7393 251.3742 15.08858811 14536","OBJECT_ID":"2022-175BE","LAUNCH_DATE":"2022-12-17","SITE":"AFETR","SEMIMAJOR_AXIS":"6917.823","NORAD_CAT_ID":"54810","EPHEMERIS_TYPE":"0","COUNTRY_CODE":"US","BSTAR":"0.00009763200000","OBJECT_TYPE":"PAYLOAD","PERIOD":"95.436","MEAN_ELEMENT_THEORY":"SGP4","ECCENTRICITY":"0.00013200","MEAN_MOTION_DDOT":"0.0000000000000","DECAY_DATE":null,"EPOCH":"2023-03-22T15:19:25.743360","REV_AT_EPOCH":"1453","ARG_OF_PERICENTER":"108.7393","RCS_SIZE":"LARGE","GP_ID":"228640700","TLE_LINE1":"1 54810U 22175BE  23081.63849240  .00001267  00000-0  97632-4 0  9992","RA_OF_ASC_NODE":"206.2486","INCLINATION":"53.2180","TIME_SYSTEM":"UTC","CENTER_NAME":"EARTH","MEAN_MOTION_DOT":"0.00001267","APOAPSIS":"540.601","PERIAPSIS":"538.775","FILE":"3867771","ELEMENT_SET_NO":"999","MEAN_ANOMALY":"251.3742","MEAN_MOTION":"15.08858811","REF_FRAME":"TEME","CLASSIFICATION_TYPE":"U"},{"TLE_LINE2":"2 54811  53.2143 206.3431 0001408  81.1910 278.9242 15.08842539 14522","LAUNCH_DATE":"2022-12-17","OBJECT_ID":"2022-175BF","OBJECT_NAME":"STARLINK-5424","SEMIMAJOR_AXIS":"6917.873","SITE":"AFETR","NORAD_CAT_ID":"54811","EPHEMERIS_TYPE":"0","COUNTRY_CODE":"US","BSTAR":"0.00004566700000","OBJECT_TYPE":"PAYLOAD","ECCENTRICITY":"0.00014080","PERIOD":"95.437","MEAN_ELEMENT_THEORY":"SGP4","REV_AT_EPOCH":"1452","RCS_SIZE":"LARGE","ARG_OF_PERICENTER":"81.1910","TLE_LINE1":"1 54811U 22175BF  23081.53910903  .00000439  00000-0  45667-4 0  9998","GP_ID":"228637881","MEAN_MOTION_DDOT":"0.0000000000000","DECAY_DATE":null,"EPOCH":"2023-03-22T12:56:19.020192","TIME_SYSTEM":"UTC","RA_OF_ASC_NODE":"206.3431","INCLINATION":"53.2143","MEAN_MOTION_DOT":"0.00000439","APOAPSIS":"540.712","CENTER_NAME":"EARTH","FILE":"3867587","PERIAPSIS":"538.764","MEAN_ANOMALY":"278.9242","MEAN_MOTION":"15.08842539","REF_FRAME":"TEME","CLASSIFICATION_TYPE":"U","ELEMENT_SET_NO":"999"},{"CENTER_NAME":"EARTH","MEAN_MOTION_DOT":"0.00000438","APOAPSIS":"559.955","INCLINATION":"43.0009","RA_OF_ASC_NODE":"263.2820","TIME_SYSTEM":"UTC","ELEMENT_SET_NO":"999","MEAN_MOTION":"15.02532897","REF_FRAME":"TEME","CLASSIFICATION_TYPE":"U","MEAN_ANOMALY":"89.8642","PERIAPSIS":"558.227","FILE":"3866953","BSTAR":"0.00004752500000","COUNTRY_CODE":"US","OBJECT_TYPE":"PAYLOAD","SITE":"AFETR","NORAD_CAT_ID":"54820","SEMIMAJOR_AXIS":"6937.226","EPHEMERIS_TYPE":"0","OBJECT_NAME":"STARLINK-5382","TLE_LINE2":"2 54820  43.0009 263.2820 0001245 270.2057  89.8642 15.02532897 13907","OBJECT_ID":"2022-177A","LAUNCH_DATE":"2022-12-28","EPOCH":"2023-03-21T18:40:38.379936","MEAN_MOTION_DDOT":"0.0000000000000","DECAY_DATE":null,"TLE_LINE1":"1 54820U 22177A   23080.77822199  .00000438  00000-0  47525-4 0  9998","GP_ID":"228623819","REV_AT_EPOCH":"1390","ARG_OF_PERICENTER":"270.2057","RCS_SIZE":"LARGE","MEAN_ELEMENT_THEORY":"SGP4","PERIOD":"95.838","ECCENTRICITY":"0.00012450"},{"PERIAPSIS":"558.224","FILE":"3867898","ELEMENT_SET_NO":"999","CLASSIFICATION_TYPE":"U","MEAN_MOTION":"15.02534027","REF_FRAME":"TEME","MEAN_ANOMALY":"97.3427","INCLINATION":"43.0011","RA_OF_ASC_NODE":"258.9295","TIME_SYSTEM":"UTC","CENTER_NAME":"EARTH","APOAPSIS":"559.951","MEAN_MOTION_DOT":"-0.00000379","MEAN_ELEMENT_THEORY":"SGP4","PERIOD":"95.838","ECCENTRICITY":"0.00012450","EPOCH":"2023-03-22T13:46:10.951968","MEAN_MOTION_DDOT":"0.0000000000000","DECAY_DATE":null,"GP_ID":"228643838","TLE_LINE1":"1 54821U 22177B   23081.57373787 -.00000379  00000-0 -12977-4 0  9991","RCS_SIZE":"LARGE","ARG_OF_PERICENTER":"262.7274","REV_AT_EPOCH":"1304","OBJECT_NAME":"STARLINK-5385","OBJECT_ID":"2022-177B","LAUNCH_DATE":"2022-12-28","TLE_LINE2":"2 54821  43.0011 258.9295 0001245 262.7274  97.3427 15.02534027 13042","OBJECT_TYPE":"PAYLOAD","BSTAR":"-0.00001297700000","COUNTRY_CODE":"US","EPHEMERIS_TYPE":"0","SITE":"AFETR","NORAD_CAT_ID":"54821","SEMIMAJOR_AXIS":"6937.223"},{"TLE_LINE2":"2 54822  42.9993 258.8157 0001417 288.7731  71.2957 15.02528173 13047","OBJECT_ID":"2022-177C","LAUNCH_DATE":"2022-12-28","OBJECT_NAME":"STARLINK-5101","NORAD_CAT_ID":"54822","SITE":"AFETR","SEMIMAJOR_AXIS":"6937.241","EPHEMERIS_TYPE":"0","BSTAR":"0.00009620600000","COUNTRY_CODE":"US","OBJECT_TYPE":"PAYLOAD","ECCENTRICITY":"0.00014170","PERIOD":"95.838","MEAN_ELEMENT_THEORY":"SGP4","REV_AT_EPOCH":"1304","ARG_OF_PERICENTER":"288.7731","RCS_SIZE":"LARGE","TLE_LINE1":"1 54822U 22177C   23081.55820109  .00001096  00000-0  96206-4 0  9997","GP_ID":"228643880","DECAY_DATE":null,"MEAN_MOTION_DDOT":"0.0000000000000","EPOCH":"2023-03-22T13:23:48.574176","TIME_SYSTEM":"UTC","RA_OF_ASC_NODE":"258.8157","INCLINATION":"42.9993","MEAN_MOTION_DOT":"0.00001096","APOAPSIS":"560.089","CENTER_NAME":"EARTH","FILE":"3867894","PERIAPSIS":"558.123","MEAN_ANOMALY":"71.2957","REF_FRAME":"TEME","MEAN_MOTION":"15.02528173","CLASSIFICATION_TYPE":"U","ELEMENT_SET_NO":"999"},{"ELEMENT_SET_NO":"999","MEAN_ANOMALY":"96.7388","CLASSIFICATION_TYPE":"U","REF_FRAME":"TEME","MEAN_MOTION":"15.02538846","PERIAPSIS":"558.077","FILE":"3867293","CENTER_NAME":"EARTH","APOAPSIS":"560.069","MEAN_MOTION_DOT":"0.00000819","RA_OF_ASC_NODE":"262.1652","INCLINATION":"43.0007","TIME_SYSTEM":"UTC","MEAN_MOTION_DDOT":"0.0000000000000","DECAY_DATE":null,"EPOCH":"2023-03-21T23:21:25.397568","ARG_OF_PERICENTER":"263.3291","RCS_SIZE":"LARGE","REV_AT_EPOCH":"1295","GP_ID":"228631882","TLE_LINE1":"1 54823U 22177D   23080.97321062  .00000819  00000-0  75679-4 0  9990","PERIOD":"95.838","MEAN_ELEMENT_THEORY":"SGP4","ECCENTRICITY":"0.00014360","EPHEMERIS_TYPE":"0","NORAD_CAT_ID":"54823","SITE":"AFETR","SEMIMAJOR_AXIS":"6937.208","OBJECT_TYPE":"PAYLOAD","BSTAR":"0.00007567900000","COUNTRY_CODE":"US","OBJECT_NAME":"STARLINK-5106","OBJECT_ID":"2022-177D","LAUNCH_DATE":"2022-12-28","TLE_LINE2":"2 54823  43.0007 262.1652 0001436 263.3291  96.7388 15.02538846 12952"},{"OBJECT_NAME":"STARLINK-4643","OBJECT_ID":"2022-177E","LAUNCH_DATE":"2022-12-28","TLE_LINE2":"2 54824  43.0023 258.8879 0001801 271.4995  88.5641 15.02521518 13041","OBJECT_TYPE":"PAYLOAD","COUNTRY_CODE":"US","BSTAR":"0.00028426000000","EPHEMERIS_TYPE":"0","SEMIMAJOR_AXIS":"6937.261","SITE":"AFETR","NORAD_CAT_ID":"54824","MEAN_ELEMENT_THEORY":"SGP4","PERIOD":"95.839","ECCENTRICITY":"0.00018010","EPOCH":"2023-03-22T13:38:11.434560","MEAN_MOTION_DDOT":"0.0000000000000","DECAY_DATE":null,"TLE_LINE1":"1 54824U 22177E   23081.56818790  .00003637  00000-0  28426-3 0  9994","GP_ID":"228643923","ARG_OF_PERICENTER":"271.4995","RCS_SIZE":"LARGE","REV_AT_EPOCH":"1304","INCLINATION":"43.0023","RA_OF_ASC_NODE":"258.8879","TIME_SYSTEM":"UTC","CENTER_NAME":"EARTH","APOAPSIS":"560.376","MEAN_MOTION_DOT":"0.00003637","PERIAPSIS":"557.877","FILE":"3867896","ELEMENT_SET_NO":"999","CLASSIFICATION_TYPE":"U","MEAN_MOTION":"15.02521518","REF_FRAME":"TEME","MEAN_ANOMALY":"88.5641"},{"ELEMENT_SET_NO":"999","MEAN_ANOMALY":"74.6653","CLASSIFICATION_TYPE":"U","REF_FRAME":"TEME","MEAN_MOTION":"15.02537801","PERIAPSIS":"557.997","FILE":"3867580","CENTER_NAME":"EARTH","APOAPSIS":"560.155","MEAN_MOTION_DOT":"0.00001958","RA_OF_ASC_NODE":"259.2063","INCLINATION":"43.0008","TIME_SYSTEM":"UTC","DECAY_DATE":null,"MEAN_MOTION_DDOT":"0.0000000000000","EPOCH":"2023-03-22T11:54:28.017504","RCS_SIZE":"LARGE","ARG_OF_PERICENTER":"285.4018","REV_AT_EPOCH":"1303","GP_ID":"228637550","TLE_LINE1":"1 54825U 22177F   23081.49615761  .00001958  00000-0  15998-3 0  9994","PERIOD":"95.838","MEAN_ELEMENT_THEORY":"SGP4","ECCENTRICITY":"0.00015550","EPHEMERIS_TYPE":"0","NORAD_CAT_ID":"54825","SITE":"AFETR","SEMIMAJOR_AXIS":"6937.211","OBJECT_TYPE":"PAYLOAD","COUNTRY_CODE":"US","BSTAR":"0.00015998000000","OBJECT_NAME":"STARLINK-4801","OBJECT_ID":"2022-177F","LAUNCH_DATE":"2022-12-28","TLE_LINE2":"2 54825  43.0008 259.2063 0001555 285.4018  74.6653 15.02537801 13032"},{"ELEMENT_SET_NO":"999","MEAN_MOTION":"15.02537796","REF_FRAME":"TEME","CLASSIFICATION_TYPE":"U","MEAN_ANOMALY":"67.6648","PERIAPSIS":"558.123","FILE":"3867297","CENTER_NAME":"EARTH","MEAN_MOTION_DOT":"0.00005309","APOAPSIS":"560.029","INCLINATION":"43.0004","RA_OF_ASC_NODE":"260.6365","TIME_SYSTEM":"UTC","EPOCH":"2023-03-22T05:28:21.643392","MEAN_MOTION_DDOT":"0.0000000000000","DECAY_DATE":null,"GP_ID":"228631546","TLE_LINE1":"1 54826U 22177G   23081.22802828  .00005309  00000-0  40778-3 0  9996","REV_AT_EPOCH":"1299","ARG_OF_PERICENTER":"292.4048","RCS_SIZE":"LARGE","MEAN_ELEMENT_THEORY":"SGP4","PERIOD":"95.838","ECCENTRICITY":"0.00013740","BSTAR":"0.00040778000000","COUNTRY_CODE":"US","OBJECT_TYPE":"PAYLOAD","NORAD_CAT_ID":"54826","SITE":"AFETR","SEMIMAJOR_AXIS":"6937.211","EPHEMERIS_TYPE":"0","OBJECT_NAME":"STARLINK-5107","TLE_LINE2":"2 54826  43.0004 260.6365 0001374 292.4048  67.6648 15.02537796 12993","LAUNCH_DATE":"2022-12-28","OBJECT_ID":"2022-177G"}];
